STARLINK-2376
1 17915C 21021BH  21326.18714994 -.00024752  00000-0 -16584-2 0  3261
2 17915  53.0581 117.8654 0001650  85.1807 202.6120 15.06424409    12
